H1 CPF 01  gfz 2022 03 26 01  5851 terrasarx 
H2 0702601  6201 31698    2022 03 26 00 59 42 2022 03 31 00 00 42   120 1 1  0 0 0
H9
10 0 59667  25902.000000  0    6455071.725  -1830596.564   1555448.951
10 0 59667  26022.000000  0    6545007.611  -2044315.380    662951.784
10 0 59667  26142.000000  0    6517109.775  -2222843.343   -241216.256
10 0 59667  26262.000000  0    6372578.979  -2361025.917  -1141140.658
10 0 59667  26382.000000  0    6114756.722  -2454463.397  -2020999.936
10 0 59667  26502.000000  0    5749044.859  -2499623.718  -2865351.672
10 0 59667  26622.000000  0    5282784.894  -2493936.075  -3659408.273
10 0 59667  26742.000000  0    4725101.559  -2435864.372  -4389297.147
10 0 59667  26862.000000  0    4086714.540  -2324959.006  -5042301.692
10 0 59667  26982.000000  0    3379721.738  -2161885.616  -5607077.494
10 0 59667  27102.000000  0    2617362.019  -1948430.519  -6073839.248
10 0 59667  27222.000000  0    1813764.400  -1687483.728  -6434519.841
10 0 59667  27342.000000  0     983684.404  -1382999.415  -6682900.076
10 0 59667  27462.000000  0     142234.434  -1039935.166  -6814704.717
10 0 59667  27582.000000  0    -695386.719   -664171.748  -6827667.750
10 0 59667  27702.000000  0   -1514161.844   -262414.285  -6721566.890
10 0 59667  27822.000000  0   -2299518.685    157924.765  -6498226.679
10 0 59667  27942.000000  0   -3037583.100    588858.457  -6161489.620
10 0 59667  28062.000000  0   -3715419.457   1021972.475  -5717157.810
10 0 59667  28182.000000  0   -4321257.286   1448584.669  -5172903.743
10 0 59667  28302.000000  0   -4844699.036   1859914.916  -4538149.766
10 0 59667  28422.000000  0   -5276905.566   2247263.756  -3823915.948
10 0 59667  28542.000000  0   -5610753.801   2602193.564  -3042637.672
10 0 59667  28662.000000  0   -5840964.756   2916709.844  -2207956.362
10 0 59667  28782.000000  0   -5964198.154   3183438.749  -1334484.472
10 0 59667  28902.000000  0   -5979109.518   3395796.502   -437548.553
10 0 59667  29022.000000  0   -5886368.037   3548145.703    467084.296
10 0 59667  29142.000000  0   -5688633.902   3635933.778   1363492.157
10 0 59667  29262.000000  0   -5390493.411   3655810.194   2235887.703
10 0 59667  29382.000000  0   -4998355.556   3605719.416   3068904.699
10 0 59667  29502.000000  0   -4520313.499   3484967.054   3847876.252
10 0 59667  29622.000000  0   -3965972.515   3294257.507   4559098.845
10 0 59667  29742.000000  0   -3346250.962   3035702.109   5190075.003
10 0 59667  29862.000000  0   -2673158.913   2712799.767   5729733.014
10 0 59667  29982.000000  0   -1959558.411   2330388.649   6168618.004
10 0 59667  30102.000000  0   -1218912.222   1894570.734   6499052.516
10 0 59667  30222.000000  0    -465026.245   1412611.423   6715263.020
10 0 59667  30342.000000  0     288207.537    892816.330   6813474.706
10 0 59667  30462.000000  0    1027066.636    344387.308   6791973.232
10 0 59667  30582.000000  0    1738246.870   -222739.892   6651132.529
10 0 59667  30702.000000  0    2409100.916   -798074.881   6393409.473
10 0 59667  30822.000000  0    3027863.232  -1370765.980   6023304.364
10 0 59667  30942.000000  0    3583858.933  -1929804.205   5547287.955
10 0 59667  31062.000000  0    4067691.875  -2464235.293   4973693.552
10 0 59667  31182.000000  0    4471408.188  -2963375.045   4312577.113
10 0 59667  31302.000000  0    4788633.365  -3417025.761   3575546.343
10 0 59667  31422.000000  0    5014679.811  -3815687.778   2775559.200
10 0 59667  31542.000000  0    5146621.149  -4150760.602   1926694.540
10 0 59667  31662.000000  0    5183330.069  -4414729.327   1043900.588
10 0 59667  31782.000000  0    5125480.532  -4601331.918    142725.866
10 0 59667  31902.000000  0    4975513.528  -4705702.969   -760962.492
10 0 59667  32022.000000  0    4737566.782  -4724489.266  -1651267.248
10 0 59667  32142.000000  0    4417370.054  -4655934.528  -2512549.241
10 0 59667  32262.000000  0    4022109.395  -4499931.338  -3329708.529
10 0 59667  32382.000000  0    3560264.080  -4258039.743  -4088452.622
10 0 59667  32502.000000  0    3041421.213  -3933471.858  -4775546.576
10 0 59667  32622.000000  0    2476071.816  -3531043.929  -5379039.770
10 0 59667  32742.000000  0    1875394.982  -3057098.118  -5888464.832
10 0 59667  32862.000000  0    1251036.245  -2519397.554  -6295008.712
10 0 59667  32982.000000  0     614881.906  -1926995.406  -6591655.607
10 0 59667  33102.000000  0     -21165.668  -1290079.220  -6773297.438
10 0 59667  33222.000000  0    -645406.525   -619795.592  -6836811.579
10 0 59667  33342.000000  0   -1246552.618     71941.792  -6781107.985
10 0 59667  33462.000000  0   -1813927.326    772658.776  -6607145.324
10 0 59667  33582.000000  0   -2337650.590   1469539.832  -6317916.044
10 0 59667  33702.000000  0   -2808807.388   2149656.592  -5918400.551
10 0 59667  33822.000000  0   -3219598.809   2800202.915  -5415491.314
10 0 59667  33942.000000  0   -3563473.202   3408734.390  -4817885.909
10 0 59667  34062.000000  0   -3835235.495   3963407.254  -4135947.692
10 0 59667  34182.000000  0   -4031130.231   4453211.700  -3381535.081
10 0 59667  34302.000000  0   -4148896.178   4868194.677  -2567803.269
10 0 59667  34422.000000  0   -4187793.608   5199667.736  -1708980.260
10 0 59667  34542.000000  0   -4148602.199   5440395.009   -820119.873
10 0 59667  34662.000000  0   -4033587.806   5584756.671     83165.834
10 0 59667  34782.000000  0   -3846438.113   5628879.818    984987.044
10 0 59667  34902.000000  0   -3592169.732   5570736.869   1869464.123
10 0 59667  35022.000000  0   -3277007.703   5410206.250   2721018.138
10 0 59667  35142.000000  0   -2908239.075   5149092.329   3524654.098
10 0 59667  35262.000000  0   -2494047.501   4791107.022   4266230.119
10 0 59667  35382.000000  0   -2043332.422   4341813.902   4932709.694
10 0 59667  35502.000000  0   -1565517.639   3808535.471   5512391.688
10 0 59667  35622.000000  0   -1070352.885   3200226.002   5995113.793
10 0 59667  35742.000000  0    -567714.091   2527313.483   6372425.498
10 0 59667  35862.000000  0     -67406.925   1801515.037   6637729.238
10 0 59667  35982.000000  0     421023.595   1035629.817   6786390.424
10 0 59667  36102.000000  0     888474.651    243311.046   6815812.933
10 0 59667  36222.000000  0    1326454.092   -561176.465   6725481.328
10 0 59667  36342.000000  0    1727234.041  -1363212.577   6516970.370
10 0 59667  36462.000000  0    2083987.351  -2148086.751   6193919.359
10 0 59667  36582.000000  0    2390904.891  -2901268.227   5761973.579
10 0 59667  36702.000000  0    2643291.994  -3608677.134   5228691.030
10 0 59667  36822.000000  0    2837641.394  -4256950.908   4603415.596
10 0 59667  36942.000000  0    2971682.621  -4833702.156   3897119.198
10 0 59667  37062.000000  0    3044406.310  -5327762.374   3122211.950
10 0 59667  37182.000000  0    3056062.297  -5729405.969   2292325.094
10 0 59667  37302.000000  0    3008130.810  -6030549.084   1422068.360
10 0 59667  37422.000000  0    2903267.650  -6224916.996    526768.184
10 0 59667  37542.000000  0    2745226.382  -6308177.932   -377808.121
10 0 59667  37662.000000  0    2538756.802  -6278039.749  -1275739.539
10 0 59667  37782.000000  0    2289482.354  -6134302.705  -2151241.296
10 0 59667  37902.000000  0    2003761.294  -5878871.619  -2988949.254
10 0 59667  38022.000000  0    1688532.805  -5515725.226  -3774196.345
10 0 59667  38142.000000  0    1351154.499  -5050842.333  -4493269.867
10 0 59667  38262.000000  0     999237.133  -4492091.301  -5133647.806
10 0 59667  38382.000000  0     640478.062  -3849085.894  -5684210.373
10 0 59667  38502.000000  0     282497.582  -3133010.223  -6135424.185
10 0 59667  38622.000000  0     -67318.251  -2356417.212  -6479496.113
10 0 59667  38742.000000  0    -401965.315  -1533005.240  -6710496.392
10 0 59667  38862.000000  0    -714956.916   -677377.040  -6824450.815
10 0 59667  38982.000000  0   -1000445.031    195216.239  -6819401.869
10 0 59667  39102.000000  0   -1253326.454   1069140.839  -6695437.429
10 0 59667  39222.000000  0   -1469331.864   1928653.181  -6454689.267
10 0 59667  39342.000000  0   -1645096.329   2758176.160  -6101300.351
10 0 59667  39462.000000  0   -1778211.616   3542576.785  -5641362.759
10 0 59667  39582.000000  0   -1867258.473   4267440.550  -5082822.719
10 0 59667  39702.000000  0   -1911818.853   4919338.353  -4435355.278
10 0 59667  39822.000000  0   -1912467.564   5486081.141  -3710206.726
10 0 59667  39942.000000  0   -1870742.428   5956955.369  -2920007.367
10 0 59667  40062.000000  0   -1789093.523   6322935.211  -2078558.188
10 0 59667  40182.000000  0   -1670813.210   6576867.393  -1200592.420
10 0 59667  40302.000000  0   -1519947.298   6713621.150   -301516.453
10 0 59667  40422.000000  0   -1341189.695   6730201.716    602863.866
10 0 59667  40542.000000  0   -1139762.495   6625823.103   1496630.096
10 0 59667  40662.000000  0    -921284.891   6401932.358   2364042.877
10 0 59667  40782.000000  0    -691633.911   6062187.760   3189827.104
10 0 59667  40902.000000  0    -456801.424   5612394.587   3959446.754
10 0 59667  41022.000000  0    -222751.387   5060400.197   4659365.618
10 0 59667  41142.000000  0       4720.694   4415945.744   5277290.309
10 0 59667  41262.000000  0     220122.608   3690482.719   5802381.471
10 0 59667  41382.000000  0     418389.441   2896962.619   6225441.068
10 0 59667  41502.000000  0     594995.568   2049597.371   6539068.170
10 0 59667  41622.000000  0     746052.460   1163600.125   6737782.269
10 0 59667  41742.000000  0     868390.358    254909.050   6818113.114
10 0 59667  41862.000000  0     959622.563   -660098.647   6778657.057
10 0 59667  41982.000000  0    1018191.240  -1564901.235   6620101.383
10 0 59667  42102.000000  0    1043394.102  -2443130.489   6345213.390
10 0 59667  42222.000000  0    1035391.551  -3278868.626   5958795.730
10 0 59667  42342.000000  0     995193.318  -4056939.238   5467605.947
99
